ONEWEB-0707             
1 61612U 24188U   25362.25440171  .00000535  00000+0  14949-2 0  9992
2 61612  87.8811  70.3246 0001199 117.0592 243.0658 13.10376096 60930
ONEWEB-0708             
1 61613U 24188V   25362.27266450  .00000473  00000+0  13197-2 0  9996
2 61613  87.8797  70.3547 0001963 120.7465 239.3856 13.10370822 60914
