[{"OBJECT_NAME":"ONEWEB-0707","OBJECT_ID":"2024-188U","EPOCH":"2025-12-28T06:06:20.307744","MEAN_MOTION":13.10376096,"ECCENTRICITY":0.00011998,"INCLINATION":87.8811,"RA_OF_ASC_NODE":70.3246,"ARG_OF_PERICENTER":117.0592,"MEAN_ANOMALY":243.0658,"EPHEMERIS_TYPE":0,"CLASSIFICATION_TYPE":"U","NORAD_CAT_ID":61612,"ELEMENT_SET_NO":999,"REV_AT_EPOCH":6093,"BSTAR":0.0014948743,"MEAN_MOTION_DOT":5.35e-6,"MEAN_MOTION_DDOT":0},{"OBJECT_NAME":"ONEWEB-0708","OBJECT_ID":"2024-188V","EPOCH":"2025-12-28T06:32:38.212800","MEAN_MOTION":13.10370822,"ECCENTRICITY":0.00019639,"INCLINATION":87.8797,"RA_OF_ASC_NODE":70.3547,"ARG_OF_PERICENTER":120.7465,"MEAN_ANOMALY":239.3856,"EPHEMERIS_TYPE":0,"CLASSIFICATION_TYPE":"U","NORAD_CAT_ID":61613,"ELEMENT_SET_NO":999,"REV_AT_EPOCH":6091,"BSTAR":0.0013196555,"MEAN_MOTION_DOT":4.73e-6,"MEAN_MOTION_DDOT":0}]
